CCSDS_OMM_VERS = 2.0
CREATION_DATE  = 
ORIGINATOR     = 

OBJECT_NAME    = ATLAS CENTAUR 2
OBJECT_ID      = 1963-047A
CENTER_NAME    = EARTH
REF_FRAME      = TEME
TIME_SYSTEM    = UTC
MEAN_ELEMENT_THEORY = SGP/SGP4

EPOCH          = 2026-03-28T16:52:32.361312
MEAN_MOTION    = 14.12141796
ECCENTRICITY   = .05474437
INCLINATION    = 30.3574
RA_OF_ASC_NODE = 89.3769
ARG_OF_PERICENTER = 247.8689
MEAN_ANOMALY   = 106.2935

EPHEMERIS_TYPE = 0
CLASSIFICATION_TYPE = U
NORAD_CAT_ID   = 694
ELEMENT_SET_NO = 999
REV_AT_EPOCH   = 13431
BSTAR          = .28154994E-3
MEAN_MOTION_DOT = .2422E-4
MEAN_MOTION_DDOT = 0

CCSDS_OMM_VERS = 2.0
CREATION_DATE  = 
ORIGINATOR     = 

OBJECT_NAME    = THOR AGENA D R/B
OBJECT_ID      = 1964-002A
CENTER_NAME    = EARTH
REF_FRAME      = TEME
TIME_SYSTEM    = UTC
MEAN_ELEMENT_THEORY = SGP/SGP4

EPOCH          = 2026-03-28T22:03:32.855328
MEAN_MOTION    = 14.34030065
ECCENTRICITY   = .00325679
INCLINATION    = 99.1214
RA_OF_ASC_NODE = 102.3044
ARG_OF_PERICENTER = 200.8616
MEAN_ANOMALY   = 159.1240

EPHEMERIS_TYPE = 0
CLASSIFICATION_TYPE = U
NORAD_CAT_ID   = 733
ELEMENT_SET_NO = 999
REV_AT_EPOCH   = 24105
BSTAR          = .93372691E-4
MEAN_MOTION_DOT = .213E-5
MEAN_MOTION_DDOT = 0

CCSDS_OMM_VERS = 2.0
CREATION_DATE  = 
ORIGINATOR     = 

OBJECT_NAME    = SL-3 R/B
OBJECT_ID      = 1964-053B
CENTER_NAME    = EARTH
REF_FRAME      = TEME
TIME_SYSTEM    = UTC
MEAN_ELEMENT_THEORY = SGP/SGP4

EPOCH          = 2026-03-28T20:28:51.517920
MEAN_MOTION    = 14.61380969
ECCENTRICITY   = .00804138
INCLINATION    = 65.0756
RA_OF_ASC_NODE = 275.0512
ARG_OF_PERICENTER = 286.1971
MEAN_ANOMALY   = 73.0291

EPHEMERIS_TYPE = 0
CLASSIFICATION_TYPE = U
NORAD_CAT_ID   = 877
ELEMENT_SET_NO = 999
REV_AT_EPOCH   = 26959
BSTAR          = .64702625E-4
MEAN_MOTION_DOT = .209E-5
MEAN_MOTION_DDOT = 0

CCSDS_OMM_VERS = 2.0
CREATION_DATE  = 
ORIGINATOR     = 

OBJECT_NAME    = SL-8 R/B
OBJECT_ID      = 1967-045B
CENTER_NAME    = EARTH
REF_FRAME      = TEME
TIME_SYSTEM    = UTC
MEAN_ELEMENT_THEORY = SGP/SGP4

EPOCH          = 2026-03-28T21:10:30.185184
MEAN_MOTION    = 14.45637487
ECCENTRICITY   = .00648782
INCLINATION    = 74.0112
RA_OF_ASC_NODE = 312.2474
ARG_OF_PERICENTER = 314.2585
MEAN_ANOMALY   = 45.3258

EPHEMERIS_TYPE = 0
CLASSIFICATION_TYPE = U
NORAD_CAT_ID   = 2802
ELEMENT_SET_NO = 999
REV_AT_EPOCH   = 9179
BSTAR          = .9131538E-4
MEAN_MOTION_DOT = .302E-5
MEAN_MOTION_DDOT = 0

CCSDS_OMM_VERS = 2.0
CREATION_DATE  = 
ORIGINATOR     = 

OBJECT_NAME    = SL-8 R/B
OBJECT_ID      = 1968-040B
CENTER_NAME    = EARTH
REF_FRAME      = TEME
TIME_SYSTEM    = UTC
MEAN_ELEMENT_THEORY = SGP/SGP4

EPOCH          = 2026-03-28T21:00:42.150240
MEAN_MOTION    = 15.03383897
ECCENTRICITY   = .00232281
INCLINATION    = 74.0295
RA_OF_ASC_NODE = 274.4851
ARG_OF_PERICENTER = 90.6913
MEAN_ANOMALY   = 269.6937

EPHEMERIS_TYPE = 0
CLASSIFICATION_TYPE = U
NORAD_CAT_ID   = 3230
ELEMENT_SET_NO = 999
REV_AT_EPOCH   = 9289
BSTAR          = .2930283E-3
MEAN_MOTION_DOT = .3966E-4
MEAN_MOTION_DDOT = 0

CCSDS_OMM_VERS = 2.0
CREATION_DATE  = 
ORIGINATOR     = 

OBJECT_NAME    = OAO 2
OBJECT_ID      = 1968-110A
CENTER_NAME    = EARTH
REF_FRAME      = TEME
TIME_SYSTEM    = UTC
MEAN_ELEMENT_THEORY = SGP/SGP4

EPOCH          = 2026-03-28T21:25:17.258304
MEAN_MOTION    = 14.47318360
ECCENTRICITY   = .00057296
INCLINATION    = 34.9924
RA_OF_ASC_NODE = 158.0057
ARG_OF_PERICENTER = 345.9830
MEAN_ANOMALY   = 14.0701

EPHEMERIS_TYPE = 0
CLASSIFICATION_TYPE = U
NORAD_CAT_ID   = 3597
ELEMENT_SET_NO = 999
REV_AT_EPOCH   = 2188
BSTAR          = .69564475E-4
MEAN_MOTION_DOT = .239E-5
MEAN_MOTION_DDOT = 0

CCSDS_OMM_VERS = 2.0
CREATION_DATE  = 
ORIGINATOR     = 

OBJECT_NAME    = ISIS 1
OBJECT_ID      = 1969-009A
CENTER_NAME    = EARTH
REF_FRAME      = TEME
TIME_SYSTEM    = UTC
MEAN_ELEMENT_THEORY = SGP/SGP4

EPOCH          = 2026-03-28T22:11:18.775104
MEAN_MOTION    = 11.30419081
ECCENTRICITY   = .1707835
INCLINATION    = 88.4507
RA_OF_ASC_NODE = 153.2094
ARG_OF_PERICENTER = 50.3614
MEAN_ANOMALY   = 323.6083

EPHEMERIS_TYPE = 0
CLASSIFICATION_TYPE = U
NORAD_CAT_ID   = 3669
ELEMENT_SET_NO = 999
REV_AT_EPOCH   = 35070
BSTAR          = .81633817E-4
MEAN_MOTION_DOT = .134E-5
MEAN_MOTION_DDOT = 0

CCSDS_OMM_VERS = 2.0
CREATION_DATE  = 
ORIGINATOR     = 

OBJECT_NAME    = SERT 2
OBJECT_ID      = 1970-009A
CENTER_NAME    = EARTH
REF_FRAME      = TEME
TIME_SYSTEM    = UTC
MEAN_ELEMENT_THEORY = SGP/SGP4

EPOCH          = 2026-03-28T20:15:29.514240
MEAN_MOTION    = 13.58731568
ECCENTRICITY   = .00056258
INCLINATION    = 99.2783
RA_OF_ASC_NODE = 29.8920
ARG_OF_PERICENTER = 111.5213
MEAN_ANOMALY   = 309.9779

EPHEMERIS_TYPE = 0
CLASSIFICATION_TYPE = U
NORAD_CAT_ID   = 4327
ELEMENT_SET_NO = 999
REV_AT_EPOCH   = 78249
BSTAR          = .50582902E-4
MEAN_MOTION_DOT = -.4E-7
MEAN_MOTION_DDOT = 0

CCSDS_OMM_VERS = 2.0
CREATION_DATE  = 
ORIGINATOR     = 

OBJECT_NAME    = SL-3 R/B
OBJECT_ID      = 1971-028B
CENTER_NAME    = EARTH
REF_FRAME      = TEME
TIME_SYSTEM    = UTC
MEAN_ELEMENT_THEORY = SGP/SGP4

EPOCH          = 2026-03-28T21:00:11.623392
MEAN_MOTION    = 15.62817545
ECCENTRICITY   = .00144228
INCLINATION    = 81.2367
RA_OF_ASC_NODE = 28.3052
ARG_OF_PERICENTER = 205.7607
MEAN_ANOMALY   = 154.2930

EPHEMERIS_TYPE = 0
CLASSIFICATION_TYPE = U
NORAD_CAT_ID   = 5118
ELEMENT_SET_NO = 999
REV_AT_EPOCH   = 99166
BSTAR          = .53415538E-3
MEAN_MOTION_DOT = .48548E-3
MEAN_MOTION_DDOT = 0

CCSDS_OMM_VERS = 2.0
CREATION_DATE  = 
ORIGINATOR     = 

OBJECT_NAME    = ASTEX 1
OBJECT_ID      = 1971-089A
CENTER_NAME    = EARTH
REF_FRAME      = TEME
TIME_SYSTEM    = UTC
MEAN_ELEMENT_THEORY = SGP/SGP4

EPOCH          = 2026-03-28T17:18:05.859360
MEAN_MOTION    = 14.50788593
ECCENTRICITY   = .0016428
INCLINATION    = 92.7092
RA_OF_ASC_NODE = 157.9108
ARG_OF_PERICENTER = 28.4068
MEAN_ANOMALY   = 331.8030

EPHEMERIS_TYPE = 0
CLASSIFICATION_TYPE = U
NORAD_CAT_ID   = 5560
ELEMENT_SET_NO = 999
REV_AT_EPOCH   = 86506
BSTAR          = .113E-3
MEAN_MOTION_DOT = .444E-5
MEAN_MOTION_DDOT = 0

CCSDS_OMM_VERS = 2.0
CREATION_DATE  = 
ORIGINATOR     = 

OBJECT_NAME    = SL-8 R/B
OBJECT_ID      = 1971-119B
CENTER_NAME    = EARTH
REF_FRAME      = TEME
TIME_SYSTEM    = UTC
MEAN_ELEMENT_THEORY = SGP/SGP4

EPOCH          = 2026-03-28T20:35:35.094048
MEAN_MOTION    = 14.38224849
ECCENTRICITY   = .05464931
INCLINATION    = 73.8857
RA_OF_ASC_NODE = 139.8813
ARG_OF_PERICENTER = 102.4550
MEAN_ANOMALY   = 263.8292

EPHEMERIS_TYPE = 0
CLASSIFICATION_TYPE = U
NORAD_CAT_ID   = 5730
ELEMENT_SET_NO = 999
REV_AT_EPOCH   = 65824
BSTAR          = .39860431E-3
MEAN_MOTION_DOT = .7611E-4
MEAN_MOTION_DDOT = 0

CCSDS_OMM_VERS = 2.0
CREATION_DATE  = 
ORIGINATOR     = 

OBJECT_NAME    = OAO 3 (COPERNICUS)
OBJECT_ID      = 1972-065A
CENTER_NAME    = EARTH
REF_FRAME      = TEME
TIME_SYSTEM    = UTC
MEAN_ELEMENT_THEORY = SGP/SGP4

EPOCH          = 2026-03-28T16:41:41.771904
MEAN_MOTION    = 14.60012766
ECCENTRICITY   = .00071429
INCLINATION    = 35.0049
RA_OF_ASC_NODE = 189.0282
ARG_OF_PERICENTER = 312.8882
MEAN_ANOMALY   = 195.3271

EPHEMERIS_TYPE = 0
CLASSIFICATION_TYPE = U
NORAD_CAT_ID   = 6153
ELEMENT_SET_NO = 999
REV_AT_EPOCH   = 84897
BSTAR          = .74322828E-4
MEAN_MOTION_DOT = .341E-5
MEAN_MOTION_DDOT = 0

