ATLAS CENTAUR 2         
1 00694U 63047A   26087.70315233  .00002422  00000+0  28155-3 0  9999
2 00694  30.3574  89.3769 0547443 247.8689 106.2935 14.12141796134310
THOR AGENA D R/B        
1 00733U 64002A   26087.91913027  .00000213  00000+0  93373-4 0  9994
2 00733  99.1214 102.3044 0032567 200.8616 159.1240 14.34030065241051
SL-3 R/B                
1 00877U 64053B   26087.85337405  .00000209  00000+0  64703-4 0  9992
2 00877  65.0756 275.0512 0080413 286.1971  73.0291 14.61380969269595
SL-8 R/B                
1 02802U 67045B   26087.88229381  .00000302  00000+0  91315-4 0  9995
2 02802  74.0112 312.2474 0064878 314.2585  45.3258 14.45637487 91795
SL-8 R/B                
1 03230U 68040B   26087.87548785  .00003966  00000+0  29303-3 0  9994
2 03230  74.0295 274.4851 0023228  90.6913 269.6937 15.03383897 92890
OAO 2                   
1 03597U 68110A   26087.89256086  .00000239  00000+0  69564-4 0  9994
2 03597  34.9924 158.0057 0005729 345.9830  14.0701 14.47318360 21887
ISIS 1                  
1 03669U 69009A   26087.92452286  .00000134  00000+0  81634-4 0  9992
2 03669  88.4507 153.2094 1707835  50.3614 323.6083 11.30419081350700
SERT 2                  
1 04327U 70009A   26087.84409160 -.00000004  00000+0  50583-4 0  9996
2 04327  99.2783  29.8920 0005625 111.5213 309.9779 13.58731568782499
SL-3 R/B                
1 05118U 71028B   26087.87513453  .00048548  00000+0  53416-3 0  9992
2 05118  81.2367  28.3052 0014422 205.7607 154.2930 15.62817545991663
ASTEX 1                 
1 05560U 71089A   26087.72090115  .00000444  00000+0  11300-3 0  9998
2 05560  92.7092 157.9108 0016428  28.4068 331.8030 14.50788593865060
SL-8 R/B                
1 05730U 71119B   26087.85804507  .00007611  00000+0  39860-3 0  9997
2 05730  73.8857 139.8813 0546493 102.4550 263.8292 14.38224849658248
OAO 3 (COPERNICUS)      
1 06153U 72065A   26087.69562236  .00000341  00000+0  74323-4 0  9997
2 06153  35.0049 189.0282 0007142 312.8882 195.3271 14.60012766848971
